[{"OBJECT_NAME":"STARLINK-4414","OBJECT_ID":"2022-084AA","EPOCH":"2025-08-06T22:07:06.122496","MEAN_MOTION":15.01257888,"ECCENTRICITY":0.00016101,"INCLINATION":97.6561,"RA_OF_ASC_NODE":279.8164,"ARG_OF_PERICENTER":86.969,"MEAN_ANOMALY":273.1718,"EPHEMERIS_TYPE":0,"CLASSIFICATION_TYPE":"U","NORAD_CAT_ID":53213,"ELEMENT_SET_NO":999,"REV_AT_EPOCH":16761,"BSTAR":3.148785e-6,"MEAN_MOTION_DOT":-1.9e-7,"MEAN_MOTION_DDOT":0},{"OBJECT_NAME":"STARLINK-4353","OBJECT_ID":"2022-084AB","EPOCH":"2025-08-06T22:17:44.710080","MEAN_MOTION":15.01262623,"ECCENTRICITY":0.00020498,"INCLINATION":97.6566,"RA_OF_ASC_NODE":279.8118,"ARG_OF_PERICENTER":90.9783,"MEAN_ANOMALY":269.1676,"EPHEMERIS_TYPE":0,"CLASSIFICATION_TYPE":"U","NORAD_CAT_ID":53214,"ELEMENT_SET_NO":999,"REV_AT_EPOCH":16709,"BSTAR":7.2679395e-5,"MEAN_MOTION_DOT":8.75e-6,"MEAN_MOTION_DDOT":0},{"OBJECT_NAME":"STARLINK-4335","OBJECT_ID":"2022-084AC","EPOCH":"2025-08-06T22:04:25.062528","MEAN_MOTION":15.01251501,"ECCENTRICITY":0.00019555,"INCLINATION":97.6561,"RA_OF_ASC_NODE":279.8163,"ARG_OF_PERICENTER":79.4115,"MEAN_ANOMALY":280.733,"EPHEMERIS_TYPE":0,"CLASSIFICATION_TYPE":"U","NORAD_CAT_ID":53215,"ELEMENT_SET_NO":999,"REV_AT_EPOCH":16761,"BSTAR":-9.0208954e-5,"MEAN_MOTION_DOT":-1.217e-5,"MEAN_MOTION_DDOT":0},{"OBJECT_NAME":"STARLINK-4376","OBJECT_ID":"2022-084AD","EPOCH":"2025-08-06T22:12:24.740640","MEAN_MOTION":15.01259824,"ECCENTRICITY":7.936e-5,"INCLINATION":97.6578,"RA_OF_ASC_NODE":279.8149,"ARG_OF_PERICENTER":103.9942,"MEAN_ANOMALY":256.1371,"EPHEMERIS_TYPE":0,"CLASSIFICATION_TYPE":"U","NORAD_CAT_ID":53216,"ELEMENT_SET_NO":999,"REV_AT_EPOCH":16709,"BSTAR":3.5936924e-5,"MEAN_MOTION_DOT":4.03e-6,"MEAN_MOTION_DDOT":0},{"OBJECT_NAME":"STARLINK-4384","OBJECT_ID":"2022-084AF","EPOCH":"2025-08-06T21:51:26.099136","MEAN_MOTION":15.01261384,"ECCENTRICITY":0.00023754,"INCLINATION":97.6554,"RA_OF_ASC_NODE":279.8385,"ARG_OF_PERICENTER":90.6982,"MEAN_ANOMALY":269.4514,"EPHEMERIS_TYPE":0,"CLASSIFICATION_TYPE":"U","NORAD_CAT_ID":53218,"ELEMENT_SET_NO":999,"REV_AT_EPOCH":16761,"BSTAR":2.3407734e-5,"MEAN_MOTION_DOT":2.42e-6,"MEAN_MOTION_DDOT":0},{"OBJECT_NAME":"STARLINK-4373","OBJECT_ID":"2022-084AG","EPOCH":"2025-08-06T21:53:45.243744","MEAN_MOTION":15.01258658,"ECCENTRICITY":0.00021875,"INCLINATION":97.6555,"RA_OF_ASC_NODE":279.8108,"ARG_OF_PERICENTER":89.9973,"MEAN_ANOMALY":270.1502,"EPHEMERIS_TYPE":0,"CLASSIFICATION_TYPE":"U","NORAD_CAT_ID":53219,"ELEMENT_SET_NO":999,"REV_AT_EPOCH":16709,"BSTAR":5.353484e-6,"MEAN_MOTION_DOT":1.0e-7,"MEAN_MOTION_DDOT":0},{"OBJECT_NAME":"STARLINK-4363","OBJECT_ID":"2022-084AH","EPOCH":"2025-08-06T22:01:44.982336","MEAN_MOTION":15.01261324,"ECCENTRICITY":0.00021428,"INCLINATION":97.6565,"RA_OF_ASC_NODE":279.8146,"ARG_OF_PERICENTER":87.3783,"MEAN_ANOMALY":272.7687,"EPHEMERIS_TYPE":0,"CLASSIFICATION_TYPE":"U","NORAD_CAT_ID":53220,"ELEMENT_SET_NO":999,"REV_AT_EPOCH":16761,"BSTAR":3.2830207e-5,"MEAN_MOTION_DOT":3.63e-6,"MEAN_MOTION_DDOT":0},{"OBJECT_NAME":"STARLINK-4377","OBJECT_ID":"2022-084AJ","EPOCH":"2025-08-06T21:51:05.253408","MEAN_MOTION":15.01258884,"ECCENTRICITY":0.00022938,"INCLINATION":97.6551,"RA_OF_ASC_NODE":279.8091,"ARG_OF_PERICENTER":90.3775,"MEAN_ANOMALY":269.7712,"EPHEMERIS_TYPE":0,"CLASSIFICATION_TYPE":"U","NORAD_CAT_ID":53221,"ELEMENT_SET_NO":999,"REV_AT_EPOCH":16709,"BSTAR":2.4554073e-5,"MEAN_MOTION_DOT":2.56e-6,"MEAN_MOTION_DDOT":0},{"OBJECT_NAME":"STARLINK-4356","OBJECT_ID":"2022-084AM","EPOCH":"2025-08-06T21:56:25.043136","MEAN_MOTION":15.01260649,"ECCENTRICITY":0.00019706,"INCLINATION":97.6556,"RA_OF_ASC_NODE":279.8122,"ARG_OF_PERICENTER":90.0298,"MEAN_ANOMALY":270.1152,"EPHEMERIS_TYPE":0,"CLASSIFICATION_TYPE":"U","NORAD_CAT_ID":53224,"ELEMENT_SET_NO":999,"REV_AT_EPOCH":16709,"BSTAR":7.187909e-6,"MEAN_MOTION_DOT":3.3e-7,"MEAN_MOTION_DDOT":0},{"OBJECT_NAME":"STARLINK-4358","OBJECT_ID":"2022-084AN","EPOCH":"2025-08-06T21:43:05.669472","MEAN_MOTION":15.01258096,"ECCENTRICITY":0.00033138,"INCLINATION":97.6536,"RA_OF_ASC_NODE":279.8018,"ARG_OF_PERICENTER":89.3761,"MEAN_ANOMALY":270.7843,"EPHEMERIS_TYPE":0,"CLASSIFICATION_TYPE":"U","NORAD_CAT_ID":53225,"ELEMENT_SET_NO":999,"REV_AT_EPOCH":16709,"BSTAR":5.2652296e-5,"MEAN_MOTION_DOT":6.17e-6,"MEAN_MOTION_DDOT":0},{"OBJECT_NAME":"STARLINK-4359","OBJECT_ID":"2022-084AP","EPOCH":"2025-08-06T21:40:25.818240","MEAN_MOTION":15.01271516,"ECCENTRICITY":0.00025888,"INCLINATION":97.6532,"RA_OF_ASC_NODE":279.8124,"ARG_OF_PERICENTER":72.2861,"MEAN_ANOMALY":287.8645,"EPHEMERIS_TYPE":0,"CLASSIFICATION_TYPE":"U","NORAD_CAT_ID":53226,"ELEMENT_SET_NO":999,"REV_AT_EPOCH":16709,"BSTAR":9.0665975e-5,"MEAN_MOTION_DOT":1.106e-5,"MEAN_MOTION_DDOT":0},{"OBJECT_NAME":"STARLINK-4366","OBJECT_ID":"2022-084AQ","EPOCH":"2025-08-06T18:15:08.315424","MEAN_MOTION":15.0126506,"ECCENTRICITY":0.00016205,"INCLINATION":97.6528,"RA_OF_ASC_NODE":279.6509,"ARG_OF_PERICENTER":69.8722,"MEAN_ANOMALY":290.2677,"EPHEMERIS_TYPE":0,"CLASSIFICATION_TYPE":"U","NORAD_CAT_ID":53227,"ELEMENT_SET_NO":999,"REV_AT_EPOCH":16707,"BSTAR":-7.1843601e-5,"MEAN_MOTION_DOT":-9.82e-6,"MEAN_MOTION_DDOT":0},{"OBJECT_NAME":"STARLINK-4365","OBJECT_ID":"2022-084AR","EPOCH":"2025-08-06T16:57:49.218624","MEAN_MOTION":15.01254632,"ECCENTRICITY":0.00030122,"INCLINATION":97.6557,"RA_OF_ASC_NODE":279.6074,"ARG_OF_PERICENTER":84.6162,"MEAN_ANOMALY":275.5406,"EPHEMERIS_TYPE":0,"CLASSIFICATION_TYPE":"U","NORAD_CAT_ID":53228,"ELEMENT_SET_NO":999,"REV_AT_EPOCH":16706,"BSTAR":-4.2035916e-5,"MEAN_MOTION_DOT":-5.99e-6,"MEAN_MOTION_DDOT":0},{"OBJECT_NAME":"STARLINK-4367","OBJECT_ID":"2022-084AS","EPOCH":"2025-08-06T21:37:47.232768","MEAN_MOTION":15.01240222,"ECCENTRICITY":0.00027675,"INCLINATION":97.6538,"RA_OF_ASC_NODE":279.7954,"ARG_OF_PERICENTER":70.1639,"MEAN_ANOMALY":289.9883,"EPHEMERIS_TYPE":0,"CLASSIFICATION_TYPE":"U","NORAD_CAT_ID":53229,"ELEMENT_SET_NO":999,"REV_AT_EPOCH":16709,"BSTAR":-0.00015134474,"MEAN_MOTION_DOT":-2.002e-5,"MEAN_MOTION_DDOT":0},{"OBJECT_NAME":"STARLINK-4364","OBJECT_ID":"2022-084AT","EPOCH":"2025-08-06T21:48:25.465248","MEAN_MOTION":15.01259417,"ECCENTRICITY":0.00028657,"INCLINATION":97.655,"RA_OF_ASC_NODE":279.7941,"ARG_OF_PERICENTER":84.7299,"MEAN_ANOMALY":275.4252,"EPHEMERIS_TYPE":0,"CLASSIFICATION_TYPE":"U","NORAD_CAT_ID":53230,"ELEMENT_SET_NO":999,"REV_AT_EPOCH":16709,"BSTAR":1.372552e-5,"MEAN_MOTION_DOT":1.17e-6,"MEAN_MOTION_DDOT":0},{"OBJECT_NAME":"STARLINK-4370","OBJECT_ID":"2022-084AU","EPOCH":"2025-08-06T21:32:25.690848","MEAN_MOTION":15.01262671,"ECCENTRICITY":0.00030362,"INCLINATION":97.652,"RA_OF_ASC_NODE":279.7889,"ARG_OF_PERICENTER":65.0814,"MEAN_ANOMALY":295.0725,"EPHEMERIS_TYPE":0,"CLASSIFICATION_TYPE":"U","NORAD_CAT_ID":53231,"ELEMENT_SET_NO":999,"REV_AT_EPOCH":16709,"BSTAR":3.4788812e-5,"MEAN_MOTION_DOT":3.88e-6,"MEAN_MOTION_DDOT":0}]
