STARLINK-4414           
1 53213U 22084AA  25218.92159864 -.00000019  00000+0  31488-5 0  9991
2 53213  97.6561 279.8164 0001610  86.9690 273.1718 15.01257888167618
STARLINK-4353           
1 53214U 22084AB  25218.92898970  .00000875  00000+0  72679-4 0  9995
2 53214  97.6566 279.8118 0002049  90.9783 269.1676 15.01262623167091
STARLINK-4335           
1 53215U 22084AC  25218.91973452 -.00001217  00000+0 -90209-4 0  9996
2 53215  97.6561 279.8163 0001955  79.4115 280.7330 15.01251501167610
STARLINK-4376           
1 53216U 22084AD  25218.92528635  .00000403  00000+0  35937-4 0  9998
2 53216  97.6578 279.8149 0000793 103.9942 256.1371 15.01259824167093
STARLINK-4384           
1 53218U 22084AF  25218.91071874  .00000242  00000+0  23408-4 0  9998
2 53218  97.6554 279.8385 0002375  90.6982 269.4514 15.01261384167613
STARLINK-4373           
1 53219U 22084AG  25218.91232921  .00000010  00000+0  53535-5 0  9999
2 53219  97.6555 279.8108 0002187  89.9973 270.1502 15.01258658167098
STARLINK-4363           
1 53220U 22084AH  25218.91788174  .00000363  00000+0  32830-4 0  9992
2 53220  97.6565 279.8146 0002142  87.3783 272.7687 15.01261324167619
STARLINK-4377           
1 53221U 22084AJ  25218.91047747  .00000256  00000+0  24554-4 0  9992
2 53221  97.6551 279.8091 0002293  90.3775 269.7712 15.01258884167090
STARLINK-4356           
1 53224U 22084AM  25218.91417874  .00000033  00000+0  71879-5 0  9993
2 53224  97.6556 279.8122 0001970  90.0298 270.1152 15.01260649167097
STARLINK-4358           
1 53225U 22084AN  25218.90492673  .00000617  00000+0  52652-4 0  9998
2 53225  97.6536 279.8018 0003313  89.3761 270.7843 15.01258096167095
STARLINK-4359           
1 53226U 22084AP  25218.90307660  .00001106  00000+0  90666-4 0  9991
2 53226  97.6532 279.8124 0002588  72.2861 287.8645 15.01271516167096
STARLINK-4366           
1 53227U 22084AQ  25218.76051291 -.00000982  00000+0 -71844-4 0  9992
2 53227  97.6528 279.6509 0001620  69.8722 290.2677 15.01265060167079
STARLINK-4365           
1 53228U 22084AR  25218.70681966 -.00000599  00000+0 -42036-4 0  9990
2 53228  97.6557 279.6074 0003012  84.6162 275.5406 15.01254632167067
STARLINK-4367           
1 53229U 22084AS  25218.90124112 -.00002002  00000+0 -15134-3 0  9997
2 53229  97.6538 279.7954 0002767  70.1639 289.9883 15.01240222167091
STARLINK-4364           
1 53230U 22084AT  25218.90862807  .00000117  00000+0  13726-4 0  9998
2 53230  97.6550 279.7941 0002865  84.7299 275.4252 15.01259417167091
STARLINK-4370           
1 53231U 22084AU  25218.89751957  .00000388  00000+0  34789-4 0  9992
2 53231  97.6520 279.7889 0003036  65.0814 295.0725 15.01262671167095
